{
  "links" : {
    "next" : "https://api.nasa.gov/neo/rest/v1/feed?start_date=1996-12-09&end_date=1996-12-09&detailed=true&api_key=t0TVs3DtDT2H8Oy2Zy8m2eVrNsAVKAexjcZXUckd",
    "prev" : "https://api.nasa.gov/neo/rest/v1/feed?start_date=1996-12-07&end_date=1996-12-07&detailed=true&api_key=t0TVs3DtDT2H8Oy2Zy8m2eVrNsAVKAexjcZXUckd",
    "self" : "https://api.nasa.gov/neo/rest/v1/feed?start_date=1996-12-08&end_date=1996-12-08&detailed=true&api_key=t0TVs3DtDT2H8Oy2Zy8m2eVrNsAVKAexjcZXUckd"
  },
  "element_count" : 5,
  "near_earth_objects" : {
    "1996-12-08" : [ {
      "links" : {
        "self" : "https://api.nasa.gov/neo/rest/v1/neo/3736504?api_key=t0TVs3DtDT2H8Oy2Zy8m2eVrNsAVKAexjcZXUckd"
      },
      "neo_reference_id" : "3736504",
      "name" : "(2015 XN261)",
      "nasa_jpl_url" : "http://ssd.jpl.nasa.gov/sbdb.cgi?sstr=3736504",
      "absolute_magnitude_h" : 26.2,
      "estimated_diameter" : {
        "kilometers" : {
          "estimated_diameter_min" : 0.0152951935,
          "estimated_diameter_max" : 0.0342010925
        },
        "meters" : {
          "estimated_diameter_min" : 15.2951935344,
          "estimated_diameter_max" : 34.201092472
        },
        "miles" : {
          "estimated_diameter_min" : 0.0095039897,
          "estimated_diameter_max" : 0.021251567
        },
        "feet" : {
          "estimated_diameter_min" : 50.1810827555,
          "estimated_diameter_max" : 112.2083122258
        }
      },
      "is_potentially_hazardous_asteroid" : false,
      "close_approach_data" : [ {
        "close_approach_date" : "1996-12-08",
        "epoch_date_close_approach" : 850032000000,
        "relative_velocity" : {
          "kilometers_per_second" : "16.6243618985",
          "kilometers_per_hour" : "59847.7028345579",
          "miles_per_hour" : "37187.0351307285"
        },
        "miss_distance" : {
          "astronomical" : "0.3809893062",
          "lunar" : "148.2048492432",
          "kilometers" : "56995192",
          "miles" : "35415168"
        },
        "orbiting_body" : "Earth"
      } ],
      "orbital_data" : {
        "orbit_id" : "18",
        "orbit_determination_date" : "2017-04-06 08:29:56",
        "orbit_uncertainty" : "3",
        "minimum_orbit_intersection" : ".00516848",
        "jupiter_tisserand_invariant" : "6.195",
        "epoch_osculation" : "2458000.5",
        "eccentricity" : ".1638589907580913",
        "semi_major_axis" : ".9740370580130292",
        "inclination" : "2.320776165997088",
        "ascending_node_longitude" : "278.5887749633199",
        "orbital_period" : "351.1249151622776",
        "perihelion_distance" : ".8144323287260338",
        "perihelion_argument" : "274.7220909126839",
        "aphelion_distance" : "1.133641787300024",
        "perihelion_time" : "2458163.985822029127",
        "mean_anomaly" : "192.3818863629058",
        "mean_motion" : "1.025276146620415",
        "equinox" : "J2000"
      }
    }, {
      "links" : {
        "self" : "https://api.nasa.gov/neo/rest/v1/neo/3736387?api_key=t0TVs3DtDT2H8Oy2Zy8m2eVrNsAVKAexjcZXUckd"
      },
      "neo_reference_id" : "3736387",
      "name" : "(2015 XT168)",
      "nasa_jpl_url" : "http://ssd.jpl.nasa.gov/sbdb.cgi?sstr=3736387",
      "absolute_magnitude_h" : 21.0,
      "estimated_diameter" : {
        "kilometers" : {
          "estimated_diameter_min" : 0.1677084622,
          "estimated_diameter_max" : 0.3750075218
        },
        "meters" : {
          "estimated_diameter_min" : 167.7084621628,
          "estimated_diameter_max" : 375.0075217981
        },
        "miles" : {
          "estimated_diameter_min" : 0.1042091748,
          "estimated_diameter_max" : 0.2330187988
        },
        "feet" : {
          "estimated_diameter_min" : 550.2246310023,
          "estimated_diameter_max" : 1230.3396778159
        }
      },
      "is_potentially_hazardous_asteroid" : false,
      "close_approach_data" : [ {
        "close_approach_date" : "1996-12-08",
        "epoch_date_close_approach" : 850032000000,
        "relative_velocity" : {
          "kilometers_per_second" : "10.8522553181",
          "kilometers_per_hour" : "39068.1191450912",
          "miles_per_hour" : "24275.4099210152"
        },
        "miss_distance" : {
          "astronomical" : "0.2897507466",
          "lunar" : "112.7130432129",
          "kilometers" : "43346096",
          "miles" : "26934016"
        },
        "orbiting_body" : "Earth"
      } ],
      "orbital_data" : {
        "orbit_id" : "13",
        "orbit_determination_date" : "2017-04-06 08:30:03",
        "orbit_uncertainty" : "2",
        "minimum_orbit_intersection" : ".0679351",
        "jupiter_tisserand_invariant" : "6.311",
        "epoch_osculation" : "2458000.5",
        "eccentricity" : ".2757898058808471",
        "semi_major_axis" : ".9388650495368165",
        "inclination" : "19.74382384323929",
        "ascending_node_longitude" : "58.63805153976577",
        "orbital_period" : "332.279222165562",
        "perihelion_distance" : ".6799356397767461",
        "perihelion_argument" : "225.5447936950166",
        "aphelion_distance" : "1.197794459296887",
        "perihelion_time" : "2457930.877645703790",
        "mean_anomaly" : "75.43067960519984",
        "mean_motion" : "1.083426154827778",
        "equinox" : "J2000"
      }
    } ]
  }
}